[
    {
        "Altitude(m)": 571820.9300914824,
        "Argument of Periapsis(deg)": 0.033114955553567506,
        "Eccentricity": 0.0,
        "Inclination(deg)": 53.0,
        "Latitude(deg)": -53.08926178369497,
        "Longitude(deg)": 79.83700863703984,
        "Mean Anomaly(deg)": -87.72373566211206,
        "RAAN(deg)": 269.9507168426401,
        "Satellite Name": "Starlink Shell 1 1201",
        "Satellite Number": 1201,
        "Semi-Major Axis(m)": 6931778.249405717,
        "Time(s)": 950
    },
    {
        "Altitude(m)": 571806.312810398,
        "Argument of Periapsis(deg)": 0.03346353403307874,
        "Eccentricity": 0.0,
        "Inclination(deg)": 53.0,
        "Latitude(deg)": -53.051477236315414,
        "Longitude(deg)": 80.83063579148799,
        "Mean Anomaly(deg)": -87.09690445855531,
        "RAAN(deg)": 269.9501980725626,
        "Satellite Name": "Starlink Shell 1 1201",
        "Satellite Number": 1201,
        "Semi-Major Axis(m)": 6931778.249405717,
        "Time(s)": 960
    },
    {
        "Altitude(m)": 571788.2296689156,
        "Argument of Periapsis(deg)": 0.03381211251258998,
        "Eccentricity": 0.0,
        "Inclination(deg)": 53.0,
        "Latitude(deg)": -53.004711681814676,
        "Longitude(deg)": 81.82224299778544,
        "Mean Anomaly(deg)": -86.47007325499865,
        "RAAN(deg)": 269.94967930248515,
        "Satellite Name": "Starlink Shell 1 1201",
        "Satellite Number": 1201,
        "Semi-Major Axis(m)": 6931778.249405717,
        "Time(s)": 970
    },
    {
        "Altitude(m)": 571766.6878635373,
        "Argument of Periapsis(deg)": 0.034160690992101214,
        "Eccentricity": 0.0,
        "Inclination(deg)": 53.0,
        "Latitude(deg)": -52.9489993763183,
        "Longitude(deg)": 82.81141122651496,
        "Mean Anomaly(deg)": -85.84324205144199,
        "RAAN(deg)": 269.94916053240763,
        "Satellite Name": "Starlink Shell 1 1201",
        "Satellite Number": 1201,
        "Semi-Major Axis(m)": 6931778.249405717,
        "Time(s)": 980
    },
    {
        "Altitude(m)": 571741.695970769,
        "Argument of Periapsis(deg)": 0.034509269471612446,
        "Eccentricity": 0.0,
        "Inclination(deg)": 53.0,
        "Latitude(deg)": -52.88438090578427,
        "Longitude(deg)": 83.79772908211132,
        "Mean Anomaly(deg)": -85.21641084788517,
        "RAAN(deg)": 269.9486417623302,
        "Satellite Name": "Starlink Shell 1 1201",
        "Satellite Number": 1201,
        "Semi-Major Axis(m)": 6931778.249405717,
        "Time(s)": 990
    }
]